ONEWEB-0578             
1 56067U 23043X   26175.21809112  .00000046  00000+0  80329-4 0  9996
2 56067  87.9253 242.5739 0002315  93.8732 266.2666 13.21824738159160
ONEWEB-0579             
1 56068U 23043Y   26175.20968051  .00000044  00000+0  74774-4 0  9999
2 56068  87.9258 242.5728 0001842 103.3510 256.7830 13.21827150159178
ONEWEB-0581             
1 56069U 23043Z   26175.14198329  .00000115  00000+0  26717-3 0  9998
2 56069  87.9096 227.4035 0001826  80.1233 280.0104 13.16593251159875
ONEWEB-0609             
1 56070U 23043AA  26175.17864606 -.00000064  00000+0 -20447-3 0  9990
2 56070  87.8999 257.8188 0002061 101.7622 258.3739 13.15549903157355
ONEWEB-0613             
1 56071U 23043AB  26175.17626354 -.00000055  00000+0 -18014-3 0  9994
2 56071  87.8999 257.8314 0001879 107.4815 252.6521 13.15547033157358
ONEWEB-0630             
1 56072U 23043AC  26175.17152335 -.00000087  00000+0 -26465-3 0  9992
2 56072  87.9006 257.8043 0001879 106.0861 254.0476 13.15547163157342
ONEWEB-0632             
1 56073U 23043AD  26175.16677282 -.00000040  00000+0 -14139-3 0  9999
2 56073  87.9000 257.8228 0001895  95.7632 264.3715 13.15548963157349
ONEWEB-0633             
1 56074U 23043AE  26175.16043169  .00000042  00000+0  76433-4 0  9997
2 56074  87.9008 257.8001 0002029 112.5254 247.6091 13.15548074157327
ONEWEB-0634             
1 56075U 23043AF  26175.22223286  .00000177  00000+0  43732-3 0  9999
2 56075  87.8999 257.8279 0002324 100.4410 259.6982 13.15549267157328
ONEWEB-0635             
1 56076U 23043AG  26175.21746850  .00000153  00000+0  37282-3 0  9993
2 56076  87.9010 257.7919 0001870  92.6560 267.4784 13.15547201157353
ONEWEB-0636             
1 56077U 23043AH  26175.20954811  .00000132  00000+0  31563-3 0  9994
2 56077  87.9005 257.7994 0001905  93.1690 266.9658 13.15550045157332
ONEWEB-0637             
1 56078U 23043AJ  26175.20321775  .00000116  00000+0  27469-3 0  9994
2 56078  87.8998 257.8169 0002181  93.8087 266.3293 13.15549164157353
ONEWEB-0647             
1 56079U 23043AK  26175.19846889  .00000018  00000+0  14776-4 0  9990
2 56079  87.8998 257.8302 0001857  99.5315 260.6025 13.15549122157342
ONEWEB-0651             
1 56080U 23043AL  26175.26976770 -.00000040  00000+0 -13930-3 0  9990
2 56080  87.8997 257.8096 0002032  93.1407 266.9956 13.15549596158552
ONEWEB-0718             
1 56081U 23043AM  26175.18895276 -.00000002  00000+0 -39845-4 0  9995
2 56081  87.8998 257.8065 0002503 105.9803 254.1603 13.15547206157356
ONEWEB-0561             
1 56710U 23068A   26174.56123984  .00000148  00000+0  33322-3 0  9994
2 56710  87.9195 273.1730 0001670  93.9779 266.1545 13.20774809150344
ONEWEB-0668             
1 56711U 23068B   26175.19265220  .00000053  00000+0  10610-3 0  9995
2 56711  87.9089 227.3814 0002588  94.1139 266.0288 13.16594323152704
ONEWEB-0676             
1 56712U 23068C   26175.20056534 -.00000001  00000+0 -34953-4 0  9996
2 56712  87.9092 227.3860 0001875  87.8551 272.2795 13.16592514152628
ONEWEB-0677             
1 56713U 23068D   26175.30702981  .00000033  00000+0  48578-4 0  9993
2 56713  87.9197 273.0160 0002181  90.3610 269.7773 13.20770618150748
ONEWEB-0678             
1 56714U 23068E   26174.92909212  .00000046  00000+0  88941-4 0  9999
2 56714  87.9009 257.8507 0001751 104.2158 255.9167 13.15549105150170
ONEWEB-0679             
1 56715U 23068F   26175.15938851 -.00000023  00000+0 -92533-4 0  9996
2 56715  87.9095 227.3853 0002456  85.6777 274.4634 13.16592582152641
ONEWEB-0680             
1 56716U 23068G   26175.21134207  .00000083  00000+0  16978-3 0  9999
2 56716  87.9257 242.5740 0002588  92.7495 267.3936 13.21824971152022
ONEWEB-0681             
1 56717U 23068H   26175.19199415  .00000083  00000+0  17015-3 0  9992
2 56717  87.9253 242.5804 0001568  70.3658 289.7645 13.21827334152010
ONEWEB-0682             
1 56718U 23068J   26175.18103689 -.00000092  00000+0 -27955-3 0  9996
2 56718  87.9004 257.8012 0002536  94.6941 265.4479 13.15549373150375
ONEWEB-0683             
1 56719U 23068K   26175.20480329  .00000164  00000+0  40156-3 0  9995
2 56719  87.9009 257.7962 0002289  99.7626 260.3763 13.15549672150344
ONEWEB-0684             
1 56720U 23068L   26175.21273005  .00000146  00000+0  35246-3 0  9993
2 56720  87.9004 257.7846 0001950 139.5423 220.5853 13.15548325150177
ONEWEB-0686             
1 56721U 23068M   26175.27181346  .00000028  00000+0  38758-4 0  9997
2 56721  87.9082 227.3859 0002330 103.0195 257.1197 13.16594688152641
ONEWEB-0694             
1 56722U 23068N   26175.20214658  .00000094  00000+0  21159-3 0  9993
2 56722  87.9103 227.3657 0002468  93.6857 266.4557 13.16594795152690
ONEWEB-0696             
1 56723U 23068P   26175.16993984 -.00000027  00000+0 -10613-3 0  9996
2 56723  87.9002 257.8308 0001545 107.9887 252.1411 13.15546973150285
ONEWEB-0703             
1 56724U 23068Q   26175.17942837 -.00000105  00000+0 -31311-3 0  9994
2 56724  87.8998 257.8101 0001142 102.6415 257.4843 13.15547179150176
