OBJECT_NAME,OBJECT_ID,EPOCH,MEAN_MOTION,ECCENTRICITY,INCLINATION,RA_OF_ASC_NODE,ARG_OF_PERICENTER,MEAN_ANOMALY,EPHEMERIS_TYPE,CLASSIFICATION_TYPE,NORAD_CAT_ID,ELEMENT_SET_NO,REV_AT_EPOCH,BSTAR,MEAN_MOTION_DOT,MEAN_MOTION_DDOT
ONEWEB-0578,2023-043X,2026-06-24T05:14:03.072768,13.21824738,.00023153,87.9253,242.5739,93.8732,266.2666,0,U,56067,999,15916,.80329027E-4,.46E-6,0
ONEWEB-0579,2023-043Y,2026-06-24T05:01:56.396064,13.21827150,.00018428,87.9258,242.5728,103.3510,256.7830,0,U,56068,999,15917,.74774418E-4,.44E-6,0
ONEWEB-0581,2023-043Z,2026-06-24T03:24:27.356256,13.16593251,.00018267,87.9096,227.4035,80.1233,280.0104,0,U,56069,999,15987,.26717396E-3,.115E-5,0
ONEWEB-0609,2023-043AA,2026-06-24T04:17:15.019584,13.15549903,.00020612,87.8999,257.8188,101.7622,258.3739,0,U,56070,999,15735,-.20446627E-3,-.64E-6,0
ONEWEB-0613,2023-043AB,2026-06-24T04:13:49.169856,13.15547033,.00018797,87.8999,257.8314,107.4815,252.6521,0,U,56071,999,15735,-.1801426E-3,-.55E-6,0
ONEWEB-0630,2023-043AC,2026-06-24T04:06:59.617440,13.15547163,.0001879,87.9006,257.8043,106.0861,254.0476,0,U,56072,999,15734,-.2646514E-3,-.87E-6,0
ONEWEB-0632,2023-043AD,2026-06-24T04:00:09.171648,13.15548963,.0001895,87.9000,257.8228,95.7632,264.3715,0,U,56073,999,15734,-.14139104E-3,-.4E-6,0
ONEWEB-0633,2023-043AE,2026-06-24T03:51:01.298016,13.15548074,.00020292,87.9008,257.8001,112.5254,247.6091,0,U,56074,999,15732,.76432783E-4,.42E-6,0
ONEWEB-0634,2023-043AF,2026-06-24T05:20:00.919104,13.15549267,.00023249,87.8999,257.8279,100.4410,259.6982,0,U,56075,999,15732,.43732392E-3,.177E-5,0
ONEWEB-0635,2023-043AG,2026-06-24T05:13:09.278400,13.15547201,.00018705,87.9010,257.7919,92.6560,267.4784,0,U,56076,999,15735,.37281907E-3,.153E-5,0
ONEWEB-0636,2023-043AH,2026-06-24T05:01:44.956704,13.15550045,.0001905,87.9005,257.7994,93.1690,266.9658,0,U,56077,999,15733,.31562526E-3,.132E-5,0
ONEWEB-0637,2023-043AJ,2026-06-24T04:52:38.013600,13.15549164,.00021816,87.8998,257.8169,93.8087,266.3293,0,U,56078,999,15735,.27469444E-3,.116E-5,0
ONEWEB-0647,2023-043AK,2026-06-24T04:45:47.712096,13.15549122,.00018579,87.8998,257.8302,99.5315,260.6025,0,U,56079,999,15734,.14776304E-4,.18E-6,0
ONEWEB-0651,2023-043AL,2026-06-24T06:28:27.929280,13.15549596,.00020323,87.8997,257.8096,93.1407,266.9956,0,U,56080,999,15855,-.13930091E-3,-.4E-6,0
ONEWEB-0718,2023-043AM,2026-06-24T04:32:05.518464,13.15547206,.0002503,87.8998,257.8065,105.9803,254.1603,0,U,56081,999,15735,-.39844801E-4,-.2E-7,0
ONEWEB-0561,2023-068A,2026-06-23T13:28:11.122176,13.20774809,.00016707,87.9195,273.1730,93.9779,266.1545,0,U,56710,999,15034,.33321976E-3,.148E-5,0
ONEWEB-0668,2023-068B,2026-06-24T04:37:25.150080,13.16594323,.00025888,87.9089,227.3814,94.1139,266.0288,0,U,56711,999,15270,.10609555E-3,.53E-6,0
ONEWEB-0676,2023-068C,2026-06-24T04:48:48.845376,13.16592514,.00018755,87.9092,227.3860,87.8551,272.2795,0,U,56712,999,15262,-.34952885E-4,-.1E-7,0
ONEWEB-0677,2023-068D,2026-06-24T07:22:07.375584,13.20770618,.00021818,87.9197,273.0160,90.3610,269.7773,0,U,56713,999,15074,.48578058E-4,.33E-6,0
ONEWEB-0678,2023-068E,2026-06-23T22:17:53.559168,13.15549105,.00017511,87.9009,257.8507,104.2158,255.9167,0,U,56714,999,15017,.88941339E-4,.46E-6,0
ONEWEB-0679,2023-068F,2026-06-24T03:49:31.167264,13.16592582,.00024561,87.9095,227.3853,85.6777,274.4634,0,U,56715,999,15264,-.92532783E-4,-.23E-6,0
ONEWEB-0680,2023-068G,2026-06-24T05:04:19.954848,13.21824971,.00025887,87.9257,242.5740,92.7495,267.3936,0,U,56716,999,15202,.16977974E-3,.83E-6,0
ONEWEB-0681,2023-068H,2026-06-24T04:36:28.294560,13.21827334,.0001568,87.9253,242.5804,70.3658,289.7645,0,U,56717,999,15201,.17014953E-3,.83E-6,0
ONEWEB-0682,2023-068J,2026-06-24T04:20:41.587296,13.15549373,.00025362,87.9004,257.8012,94.6941,265.4479,0,U,56718,999,15037,-.27954963E-3,-.92E-6,0
ONEWEB-0683,2023-068K,2026-06-24T04:54:55.004256,13.15549672,.00022895,87.9009,257.7962,99.7626,260.3763,0,U,56719,999,15034,.40155939E-3,.164E-5,0
ONEWEB-0684,2023-068L,2026-06-24T05:06:19.876320,13.15548325,.000195,87.9004,257.7846,139.5423,220.5853,0,U,56720,999,15017,.35246252E-3,.146E-5,0
ONEWEB-0686,2023-068M,2026-06-24T06:31:24.682944,13.16594688,.00023306,87.9082,227.3859,103.0195,257.1197,0,U,56721,999,15264,.38758033E-4,.28E-6,0
ONEWEB-0694,2023-068N,2026-06-24T04:51:05.464512,13.16594795,.00024688,87.9103,227.3657,93.6857,266.4557,0,U,56722,999,15269,.21158666E-3,.94E-6,0
ONEWEB-0696,2023-068P,2026-06-24T04:04:42.802176,13.15546973,.00015456,87.9002,257.8308,107.9887,252.1411,0,U,56723,999,15028,-.10613393E-3,-.27E-6,0
ONEWEB-0703,2023-068Q,2026-06-24T04:18:22.611168,13.15547179,.00011421,87.8998,257.8101,102.6415,257.4843,0,U,56724,999,15017,-.31310585E-3,-.105E-5,0
